start=new Date('2022-06-05T00:00:00.000Z').valueOf();
sats=[{"PERIOD":"95.438","MEAN_MOTION_DDOT":"0.0000000000000","OBJECT_NAME":"STARLINK-3075","MEAN_MOTION":"15.08828523","ELEMENT_SET_NO":"999","REV_AT_EPOCH":"3118","NORAD_CAT_ID":"49409","TIME_SYSTEM":"UTC","MEAN_MOTION_DOT":"0.00000212","EPHEMERIS_TYPE":"0","RCS_SIZE":"LARGE","SITE":"AFETR","RA_OF_ASC_NODE":"278.0645","OBJECT_TYPE":"PAYLOAD","TLE_LINE2":"2 49409  53.2174 278.0645 0002027  41.3519 318.7626 15.08828523 31184","FILE":"3480894","COUNTRY_CODE":"US","PERIAPSIS":"538.378","BSTAR":"0.00003143100000","LAUNCH_DATE":"2021-11-13","ARG_OF_PERICENTER":"41.3519","INCLINATION":"53.2174","ECCENTRICITY":"0.00020270","MEAN_ELEMENT_THEORY":"SGP4","TLE_LINE1":"1 49409U 21104B   22155.51011851  .00000212  00000-0  31431-4 0  9992","EPOCH":"2022-06-04T12:14:34.239264","DECAY_DATE":null,"CENTER_NAME":"EARTH","SEMIMAJOR_AXIS":"6917.915","GP_ID":"205353322","REF_FRAME":"TEME","APOAPSIS":"541.183","CLASSIFICATION_TYPE":"U","MEAN_ANOMALY":"318.7626","OBJECT_ID":"2021-104B"},{"EPHEMERIS_TYPE":"0","MEAN_MOTION_DOT":"0.00000622","TIME_SYSTEM":"UTC","NORAD_CAT_ID":"49410","REV_AT_EPOCH":"3117","ELEMENT_SET_NO":"999","PERIOD":"95.438","MEAN_MOTION":"15.08831874","MEAN_MOTION_DDOT":"0.0000000000000","OBJECT_NAME":"STARLINK-3147","FILE":"3480894","COUNTRY_CODE":"US","OBJECT_TYPE":"PAYLOAD","TLE_LINE2":"2 49410  53.2187 278.1008 0002554  32.9737 327.1414 15.08831874 31178","RA_OF_ASC_NODE":"278.1008","SITE":"AFETR","RCS_SIZE":"LARGE","SEMIMAJOR_AXIS":"6917.905","CENTER_NAME":"EARTH","DECAY_DATE":null,"EPOCH":"2022-06-04T12:03:58.145184","TLE_LINE1":"1 49410U 21104C   22155.50275631  .00000622  00000-0  57239-4 0  9990","MEAN_ELEMENT_THEORY":"SGP4","ECCENTRICITY":"0.00025540","ARG_OF_PERICENTER":"32.9737","INCLINATION":"53.2187","LAUNCH_DATE":"2021-11-13","BSTAR":"0.00005723900000","PERIAPSIS":"538.003","OBJECT_ID":"2021-104C","MEAN_ANOMALY":"327.1414","CLASSIFICATION_TYPE":"U","APOAPSIS":"541.537","REF_FRAME":"TEME","GP_ID":"205353072"},{"SITE":"AFETR","RCS_SIZE":"LARGE","TLE_LINE2":"2 49411  53.2181 268.1200 0002152  40.3671 319.7480 15.08844524 31312","OBJECT_TYPE":"PAYLOAD","COUNTRY_CODE":"US","FILE":"3480894","RA_OF_ASC_NODE":"268.1200","ELEMENT_SET_NO":"999","REV_AT_EPOCH":"3131","OBJECT_NAME":"STARLINK-3162","PERIOD":"95.437","MEAN_MOTION_DDOT":"0.0000000000000","MEAN_MOTION":"15.08844524","MEAN_MOTION_DOT":"0.00000722","EPHEMERIS_TYPE":"0","TIME_SYSTEM":"UTC","NORAD_CAT_ID":"49411","REF_FRAME":"TEME","GP_ID":"205351820","OBJECT_ID":"2021-104D","CLASSIFICATION_TYPE":"U","MEAN_ANOMALY":"319.7480","APOAPSIS":"541.220","MEAN_ELEMENT_THEORY":"SGP4","ARG_OF_PERICENTER":"40.3671","INCLINATION":"53.2181","ECCENTRICITY":"0.00021520","BSTAR":"0.00006345700000","LAUNCH_DATE":"2021-11-13","PERIAPSIS":"538.243","CENTER_NAME":"EARTH","SEMIMAJOR_AXIS":"6917.867","EPOCH":"2022-06-04T11:54:40.963680","DECAY_DATE":null,"TLE_LINE1":"1 49411U 21104D   22155.49630745  .00000722  00000-0  63457-4 0  9990"},{"ARG_OF_PERICENTER":"28.6977","INCLINATION":"53.2169","ECCENTRICITY":"0.00023070","MEAN_ELEMENT_THEORY":"SGP4","PERIAPSIS":"538.137","BSTAR":"0.00003418900000","LAUNCH_DATE":"2021-11-13","EPOCH":"2022-06-04T12:09:15.022368","DECAY_DATE":null,"CENTER_NAME":"EARTH","SEMIMAJOR_AXIS":"6917.868","TLE_LINE1":"1 49412U 21104E   22155.50642387  .00000256  00000-0  34189-4 0  9990","GP_ID":"205315579","REF_FRAME":"TEME","OBJECT_ID":"2021-104E","APOAPSIS":"541.329","CLASSIFICATION_TYPE":"U","MEAN_ANOMALY":"331.4142","ELEMENT_SET_NO":"999","REV_AT_EPOCH":"3227","PERIOD":"95.437","OBJECT_NAME":"STARLINK-3144","MEAN_MOTION_DDOT":"0.0000000000000","MEAN_MOTION":"15.08844024","MEAN_MOTION_DOT":"0.00000256","EPHEMERIS_TYPE":"0","NORAD_CAT_ID":"49412","TIME_SYSTEM":"UTC","SITE":"AFETR","RCS_SIZE":"LARGE","TLE_LINE2":"2 49412  53.2169 278.0786 0002307  28.6977 331.4142 15.08844024 32275","OBJECT_TYPE":"PAYLOAD","FILE":"3480358","COUNTRY_CODE":"US","RA_OF_ASC_NODE":"278.0786"},{"MEAN_ANOMALY":"326.1268","CLASSIFICATION_TYPE":"U","APOAPSIS":"541.435","OBJECT_ID":"2021-104F","REF_FRAME":"TEME","GP_ID":"205352822","TLE_LINE1":"1 49413U 21104F   22155.49263311  .00001999  00000-0  14366-3 0  9994","SEMIMAJOR_AXIS":"6917.863","CENTER_NAME":"EARTH","DECAY_DATE":null,"EPOCH":"2022-06-04T11:49:23.500704","LAUNCH_DATE":"2021-11-13","BSTAR":"0.00014366000000","PERIAPSIS":"538.021","MEAN_ELEMENT_THEORY":"SGP4","ECCENTRICITY":"0.00024680","ARG_OF_PERICENTER":"33.9882","INCLINATION":"53.2164","RA_OF_ASC_NODE":"268.1431","COUNTRY_CODE":"US","FILE":"3480894","TLE_LINE2":"2 49413  53.2164 268.1431 0002468  33.9882 326.1268 15.08845733 31312","OBJECT_TYPE":"PAYLOAD","RCS_SIZE":"LARGE","SITE":"AFETR","TIME_SYSTEM":"UTC","NORAD_CAT_ID":"49413","EPHEMERIS_TYPE":"0","MEAN_MOTION_DOT":"0.00001999","PERIOD":"95.437","MEAN_MOTION_DDOT":"0.0000000000000","OBJECT_NAME":"STARLINK-3157","MEAN_MOTION":"15.08845733","REV_AT_EPOCH":"3131","ELEMENT_SET_NO":"999"},{"ELEMENT_SET_NO":"999","REV_AT_EPOCH":"3117","OBJECT_NAME":"STARLINK-3146","PERIOD":"95.438","MEAN_MOTION_DDOT":"0.0000000000000","MEAN_MOTION":"15.08840652","MEAN_MOTION_DOT":"0.00002433","EPHEMERIS_TYPE":"0","NORAD_CAT_ID":"49414","TIME_SYSTEM":"UTC","SITE":"AFETR","RCS_SIZE":"LARGE","OBJECT_TYPE":"PAYLOAD","TLE_LINE2":"2 49414  53.2168 278.1053 0002415  34.2570 325.8578 15.08840652 31177","COUNTRY_CODE":"US","FILE":"3480894","RA_OF_ASC_NODE":"278.1053","INCLINATION":"53.2168","ARG_OF_PERICENTER":"34.2570","ECCENTRICITY":"0.00024150","MEAN_ELEMENT_THEORY":"SGP4","PERIAPSIS":"538.073","BSTAR":"0.00017095000000","LAUNCH_DATE":"2021-11-13","EPOCH":"2022-06-04T11:58:40.071360","DECAY_DATE":null,"CENTER_NAME":"EARTH","SEMIMAJOR_AXIS":"6917.878","TLE_LINE1":"1 49414U 21104G   22155.49907490  .00002433  00000-0  17095-3 0  9994","GP_ID":"205353573","REF_FRAME":"TEME","OBJECT_ID":"2021-104G","APOAPSIS":"541.414","CLASSIFICATION_TYPE":"U","MEAN_ANOMALY":"325.8578"},{"GP_ID":"205352321","REF_FRAME":"TEME","OBJECT_ID":"2021-104H","APOAPSIS":"541.611","CLASSIFICATION_TYPE":"U","MEAN_ANOMALY":"324.7006","ARG_OF_PERICENTER":"35.4164","INCLINATION":"53.2174","ECCENTRICITY":"0.00026960","MEAN_ELEMENT_THEORY":"SGP4","PERIAPSIS":"537.881","BSTAR":"0.00007042300000","LAUNCH_DATE":"2021-11-13","EPOCH":"2022-06-04T11:44:05.591040","DECAY_DATE":null,"CENTER_NAME":"EARTH","SEMIMAJOR_AXIS":"6917.881","TLE_LINE1":"1 49415U 21104H   22155.48895360  .00000832  00000-0  70423-4 0  9992","SITE":"AFETR","RCS_SIZE":"LARGE","OBJECT_TYPE":"PAYLOAD","TLE_LINE2":"2 49415  53.2174 268.1602 0002696  35.4164 324.7006 15.08839767 31301","FILE":"3480894","COUNTRY_CODE":"US","RA_OF_ASC_NODE":"268.1602","ELEMENT_SET_NO":"999","REV_AT_EPOCH":"3130","OBJECT_NAME":"STARLINK-3159","PERIOD":"95.438","MEAN_MOTION_DDOT":"0.0000000000000","MEAN_MOTION":"15.08839767","MEAN_MOTION_DOT":"0.00000832","EPHEMERIS_TYPE":"0","NORAD_CAT_ID":"49415","TIME_SYSTEM":"UTC"},{"SITE":"AFETR","RCS_SIZE":"LARGE","OBJECT_TYPE":"PAYLOAD","TLE_LINE2":"2 49416  53.2177 278.1303 0002736  34.4367 325.6802 15.08840056 31175","COUNTRY_CODE":"US","FILE":"3480894","RA_OF_ASC_NODE":"278.1303","ELEMENT_SET_NO":"999","REV_AT_EPOCH":"3117","PERIOD":"95.438","MEAN_MOTION_DDOT":"0.0000000000000","MEAN_MOTION":"15.08840056","OBJECT_NAME":"STARLINK-3133","MEAN_MOTION_DOT":"0.00000111","EPHEMERIS_TYPE":"0","TIME_SYSTEM":"UTC","NORAD_CAT_ID":"49416","REF_FRAME":"TEME","GP_ID":"205352071","OBJECT_ID":"2021-104J","CLASSIFICATION_TYPE":"U","MEAN_ANOMALY":"325.6802","APOAPSIS":"541.638","MEAN_ELEMENT_THEORY":"SGP4","INCLINATION":"53.2177","ARG_OF_PERICENTER":"34.4367","ECCENTRICITY":"0.00027360","BSTAR":"0.00002507600000","LAUNCH_DATE":"2021-11-13","PERIAPSIS":"537.852","CENTER_NAME":"EARTH","SEMIMAJOR_AXIS":"6917.880","EPOCH":"2022-06-04T11:48:04.069728","DECAY_DATE":null,"TLE_LINE1":"1 49416U 21104J   22155.49171377  .00000111  00000-0  25076-4 0  9993"},{"ECCENTRICITY":"0.00024280","ARG_OF_PERICENTER":"30.5304","INCLINATION":"53.2182","MEAN_ELEMENT_THEORY":"SGP4","PERIAPSIS":"538.118","LAUNCH_DATE":"2021-11-13","BSTAR":"0.00002263500000","DECAY_DATE":null,"EPOCH":"2022-06-04T16:24:58.162464","SEMIMAJOR_AXIS":"6917.933","CENTER_NAME":"EARTH","TLE_LINE1":"1 49417U 21104K   22155.68400651  .00000072  00000-0  22635-4 0  9999","GP_ID":"205388021","REF_FRAME":"TEME","OBJECT_ID":"2021-104K","APOAPSIS":"541.478","MEAN_ANOMALY":"329.5829","CLASSIFICATION_TYPE":"U","REV_AT_EPOCH":"3133","ELEMENT_SET_NO":"999","PERIOD":"95.439","MEAN_MOTION_DDOT":"0.0000000000000","OBJECT_NAME":"STARLINK-3154","MEAN_MOTION":"15.08822791","EPHEMERIS_TYPE":"0","MEAN_MOTION_DOT":"0.00000072","NORAD_CAT_ID":"49417","TIME_SYSTEM":"UTC","SITE":"AFETR","RCS_SIZE":"LARGE","FILE":"3481313","COUNTRY_CODE":"US","TLE_LINE2":"2 49417  53.2182 267.2808 0002428  30.5304 329.5829 15.08822791 31333","OBJECT_TYPE":"PAYLOAD","RA_OF_ASC_NODE":"267.2808"},{"MEAN_MOTION":"15.08842553","PERIOD":"95.437","MEAN_MOTION_DDOT":"0.0000000000000","OBJECT_NAME":"STARLINK-3111","REV_AT_EPOCH":"3116","ELEMENT_SET_NO":"999","NORAD_CAT_ID":"49418","TIME_SYSTEM":"UTC","EPHEMERIS_TYPE":"0","MEAN_MOTION_DOT":"0.00000270","RCS_SIZE":"LARGE","SITE":"AFETR","RA_OF_ASC_NODE":"278.1526","COUNTRY_CODE":"US","FILE":"3480894","TLE_LINE2":"2 49418  53.2174 278.1526 0002665  28.4369 331.6768 15.08842553 31168","OBJECT_TYPE":"PAYLOAD","PERIAPSIS":"537.894","LAUNCH_DATE":"2021-11-13","BSTAR":"0.00003507300000","ECCENTRICITY":"0.00026650","INCLINATION":"53.2174","ARG_OF_PERICENTER":"28.4369","MEAN_ELEMENT_THEORY":"SGP4","TLE_LINE1":"1 49418U 21104L   22155.48802391  .00000270  00000-0  35073-4 0  9995","DECAY_DATE":null,"EPOCH":"2022-06-04T11:42:45.265824","SEMIMAJOR_AXIS":"6917.873","CENTER_NAME":"EARTH","GP_ID":"205353073","REF_FRAME":"TEME","APOAPSIS":"541.581","MEAN_ANOMALY":"331.6768","CLASSIFICATION_TYPE":"U","OBJECT_ID":"2021-104L"}];
